QZS-1 (MICHIBIKI-1)     
1 37158U 10045A   19202.71879542 -.00000157  00000-0  00000+0 0  9994
2 37158  41.3540 148.3128 0760096 270.7586 277.3113  1.00265519 32427
QZS-2  (MICHIBIKI-2)    
1 42738U 17028A   19203.53182174 -.00000182  00000-0  00000+0 0  9999
2 42738  43.5415 279.0377 0754114 269.4219  82.8322  1.00281305  7853
QZS-3 (MICHIBIKI-3)     
1 42917U 17048A   19202.90257696 -.00000351  00000-0  00000-0 0  9991
2 42917   0.0687 234.5170 0001552 259.3040 257.4709  1.00276358  6961
QZS-4 (MICHIBIKI-4)     
1 42965U 17062A   19202.79426472 -.00000326  00000-0  00000+0 0  9998
2 42965  40.7624  15.9895 0744796 268.5975  77.5636  1.00297281  6524
